[{"OBJECT_NAME":"OBJECT A","OBJECT_ID":"2025-284A","EPOCH":"2026-03-09T22:32:24.508320","MEAN_MOTION":13.97315283,"ECCENTRICITY":0.00115689,"INCLINATION":80.4065,"RA_OF_ASC_NODE":32.9065,"ARG_OF_PERICENTER":141.4365,"MEAN_ANOMALY":218.7625,"EPHEMERIS_TYPE":0,"CLASSIFICATION_TYPE":"U","NORAD_CAT_ID":66913,"ELEMENT_SET_NO":999,"REV_AT_EPOCH":1362,"BSTAR":0.00014617257,"MEAN_MOTION_DOT":2.14e-6,"MEAN_MOTION_DDOT":0},{"OBJECT_NAME":"IRAS","OBJECT_ID":"1983-004A","EPOCH":"2026-03-09T12:30:55.777824","MEAN_MOTION":14.00892226,"ECCENTRICITY":0.0018101,"INCLINATION":99.0494,"RA_OF_ASC_NODE":251.076,"ARG_OF_PERICENTER":237.2021,"MEAN_ANOMALY":122.74,"EPHEMERIS_TYPE":0,"CLASSIFICATION_TYPE":"U","NORAD_CAT_ID":13777,"ELEMENT_SET_NO":999,"REV_AT_EPOCH":87242,"BSTAR":4.63866e-7,"MEAN_MOTION_DOT":-4.4e-7,"MEAN_MOTION_DDOT":0}]
